[
    {
        "Altitude(m)": 553468.27102854,
        "Argument of Periapsis(deg)": 0.026491964442854003,
        "Eccentricity": 0.0,
        "Inclination(deg)": 53.0,
        "Latitude(deg)": 11.87496421384892,
        "Longitude(deg)": -94.1170823577126,
        "Mean Anomaly(deg)": 14.911871470310313,
        "RAAN(deg)": -0.03942652588793271,
        "Satellite Name": "Starlink Shell 1 20",
        "Satellite Number": 20,
        "Semi-Major Axis(m)": 6931778.249405717,
        "Time(s)": 760
    },
    {
        "Altitude(m)": 553469.6714850973,
        "Argument of Periapsis(deg)": 0.02684054292236524,
        "Eccentricity": 0.0,
        "Inclination(deg)": 53.0,
        "Latitude(deg)": 12.372276598388595,
        "Longitude(deg)": -93.76432718060823,
        "Mean Anomaly(deg)": 15.538702673867073,
        "RAAN(deg)": -0.03994529596540552,
        "Satellite Name": "Starlink Shell 1 20",
        "Satellite Number": 20,
        "Semi-Major Axis(m)": 6931778.249405717,
        "Time(s)": 770
    },
    {
        "Altitude(m)": 553473.662097375,
        "Argument of Periapsis(deg)": 0.027189121401876473,
        "Eccentricity": 0.0,
        "Inclination(deg)": 53.0,
        "Latitude(deg)": 12.869002771021382,
        "Longitude(deg)": -93.41007696553503,
        "Mean Anomaly(deg)": 16.165533877423783,
        "RAAN(deg)": -0.040464066042878305,
        "Satellite Name": "Starlink Shell 1 20",
        "Satellite Number": 20,
        "Semi-Major Axis(m)": 6931778.249405717,
        "Time(s)": 780
    },
    {
        "Altitude(m)": 553480.2181483925,
        "Argument of Periapsis(deg)": 0.02753769988138771,
        "Eccentricity": 0.0,
        "Inclination(deg)": 53.0,
        "Latitude(deg)": 13.365115851520889,
        "Longitude(deg)": -93.05426543279836,
        "Mean Anomaly(deg)": 16.792365080980442,
        "RAAN(deg)": -0.040982836120351106,
        "Satellite Name": "Starlink Shell 1 20",
        "Satellite Number": 20,
        "Semi-Major Axis(m)": 6931778.249405717,
        "Time(s)": 790
    },
    {
        "Altitude(m)": 553489.3137524236,
        "Argument of Periapsis(deg)": 0.02788627836089895,
        "Eccentricity": 0.0,
        "Inclination(deg)": 53.0,
        "Latitude(deg)": 13.860588623229729,
        "Longitude(deg)": -92.69682613541487,
        "Mean Anomaly(deg)": 17.4191962845372,
        "RAAN(deg)": -0.041501606197823906,
        "Satellite Name": "Starlink Shell 1 20",
        "Satellite Number": 20,
        "Semi-Major Axis(m)": 6931778.249405717,
        "Time(s)": 800
    },
    {
        "Altitude(m)": 553500.9218705684,
        "Argument of Periapsis(deg)": 0.02823485684041019,
        "Eccentricity": 0.0,
        "Inclination(deg)": 53.0,
        "Latitude(deg)": 14.355393517357715,
        "Longitude(deg)": -92.33769192786991,
        "Mean Anomaly(deg)": 18.046027488093912,
        "RAAN(deg)": -0.04202037627529671,
        "Satellite Name": "Starlink Shell 1 20",
        "Satellite Number": 20,
        "Semi-Major Axis(m)": 6931778.249405717,
        "Time(s)": 810
    },
    {
        "Altitude(m)": 553515.0143268819,
        "Argument of Periapsis(deg)": 0.028583435319921423,
        "Eccentricity": 0.0,
        "Inclination(deg)": 53.0,
        "Latitude(deg)": 14.84950259696224,
        "Longitude(deg)": -91.97679443484688,
        "Mean Anomaly(deg)": 18.672858691650625,
        "RAAN(deg)": -0.0425391463527695,
        "Satellite Name": "Starlink Shell 1 20",
        "Satellite Number": 20,
        "Semi-Major Axis(m)": 6931778.249405717,
        "Time(s)": 820
    },
    {
        "Altitude(m)": 553531.5618250651,
        "Argument of Periapsis(deg)": 0.028932013799432665,
        "Eccentricity": 0.0,
        "Inclination(deg)": 53.0,
        "Latitude(deg)": 15.342887540597541,
        "Longitude(deg)": -91.61406503281675,
        "Mean Anomaly(deg)": 19.29968989520733,
        "RAAN(deg)": -0.0430579164302423,
        "Satellite Name": "Starlink Shell 1 20",
        "Satellite Number": 20,
        "Semi-Major Axis(m)": 6931778.249405717,
        "Time(s)": 830
    },
    {
        "Altitude(m)": 553550.5339656854,
        "Argument of Periapsis(deg)": 0.029280592278943897,
        "Eccentricity": 0.0,
        "Inclination(deg)": 53.0,
        "Latitude(deg)": 15.835519625619877,
        "Longitude(deg)": -91.24943431876228,
        "Mean Anomaly(deg)": 19.92652109876404,
        "RAAN(deg)": -0.0435766865077151,
        "Satellite Name": "Starlink Shell 1 20",
        "Satellite Number": 20,
        "Semi-Major Axis(m)": 6931778.249405717,
        "Time(s)": 840
    },
    {
        "Altitude(m)": 553571.8992639425,
        "Argument of Periapsis(deg)": 0.029629170758455132,
        "Eccentricity": 0.0,
        "Inclination(deg)": 53.0,
        "Latitude(deg)": 16.327369711136658,
        "Longitude(deg)": -90.88283157893193,
        "Mean Anomaly(deg)": 20.553352302320754,
        "RAAN(deg)": -0.044095456585187896,
        "Satellite Name": "Starlink Shell 1 20",
        "Satellite Number": 20,
        "Semi-Major Axis(m)": 6931778.249405717,
        "Time(s)": 850
    },
    {
        "Altitude(m)": 553595.6251679328,
        "Argument of Periapsis(deg)": 0.02997774923796637,
        "Eccentricity": 0.0,
        "Inclination(deg)": 53.0,
        "Latitude(deg)": 16.8184082205871,
        "Longitude(deg)": -90.51418593861635,
        "Mean Anomaly(deg)": 21.18018350587746,
        "RAAN(deg)": -0.044614226662660704,
        "Satellite Name": "Starlink Shell 1 20",
        "Satellite Number": 20,
        "Semi-Major Axis(m)": 6931778.249405717,
        "Time(s)": 860
    },
    {
        "Altitude(m)": 553621.678077449,
        "Argument of Periapsis(deg)": 0.030326327717477602,
        "Eccentricity": 0.0,
        "Inclination(deg)": 53.0,
        "Latitude(deg)": 17.308605123941298,
        "Longitude(deg)": -90.14342499055294,
        "Mean Anomaly(deg)": 21.80701470943422,
        "RAAN(deg)": -0.04513299674013349,
        "Satellite Name": "Starlink Shell 1 20",
        "Satellite Number": 20,
        "Semi-Major Axis(m)": 6931778.249405717,
        "Time(s)": 870
    },
    {
        "Altitude(m)": 553650.0233632938,
        "Argument of Periapsis(deg)": 0.030674906196988847,
        "Eccentricity": 0.0,
        "Inclination(deg)": 53.0,
        "Latitude(deg)": 17.797929919506096,
        "Longitude(deg)": -89.77047594489768,
        "Mean Anomaly(deg)": 22.43384591299093,
        "RAAN(deg)": -0.0456517668176063,
        "Satellite Name": "Starlink Shell 1 20",
        "Satellite Number": 20,
        "Semi-Major Axis(m)": 6931778.249405717,
        "Time(s)": 880
    },
    {
        "Altitude(m)": 553680.6253870231,
        "Argument of Periapsis(deg)": 0.031023484676500086,
        "Eccentricity": 0.0,
        "Inclination(deg)": 53.0,
        "Latitude(deg)": 18.286351615325586,
        "Longitude(deg)": -89.39526509837468,
        "Mean Anomaly(deg)": 23.060677116547588,
        "RAAN(deg)": -0.0461705368950791,
        "Satellite Name": "Starlink Shell 1 20",
        "Satellite Number": 20,
        "Semi-Major Axis(m)": 6931778.249405717,
        "Time(s)": 890
    },
    {
        "Altitude(m)": 553713.4475212599,
        "Argument of Periapsis(deg)": 0.03137206315601132,
        "Eccentricity": 0.0,
        "Inclination(deg)": 53.0,
        "Latitude(deg)": 18.773838710163677,
        "Longitude(deg)": -89.01771730361246,
        "Mean Anomaly(deg)": 23.687508320104403,
        "RAAN(deg)": -0.04668930697255189,
        "Satellite Name": "Starlink Shell 1 20",
        "Satellite Number": 20,
        "Semi-Major Axis(m)": 6931778.249405717,
        "Time(s)": 900
    },
    {
        "Altitude(m)": 553748.452170384,
        "Argument of Periapsis(deg)": 0.03172064163552255,
        "Eccentricity": 0.0,
        "Inclination(deg)": 53.0,
        "Latitude(deg)": 19.260359174057353,
        "Longitude(deg)": -88.63775695158253,
        "Mean Anomaly(deg)": 24.314339523661058,
        "RAAN(deg)": -0.047208077050024694,
        "Satellite Name": "Starlink Shell 1 20",
        "Satellite Number": 20,
        "Semi-Major Axis(m)": 6931778.249405717,
        "Time(s)": 910
    },
    {
        "Altitude(m)": 553785.6007917639,
        "Argument of Periapsis(deg)": 0.0320692201150338,
        "Eccentricity": 0.0,
        "Inclination(deg)": 53.0,
        "Latitude(deg)": 19.745880428429928,
        "Longitude(deg)": -88.25530744144028,
        "Mean Anomaly(deg)": 24.941170727217767,
        "RAAN(deg)": -0.047726847127497495,
        "Satellite Name": "Starlink Shell 1 20",
        "Satellite Number": 20,
        "Semi-Major Axis(m)": 6931778.249405717,
        "Time(s)": 920
    },
    {
        "Altitude(m)": 553824.8539173474,
        "Argument of Periapsis(deg)": 0.032417798594545036,
        "Eccentricity": 0.0,
        "Inclination(deg)": 53.0,
        "Latitude(deg)": 20.23036932575144,
        "Longitude(deg)": -87.87029065069572,
        "Mean Anomaly(deg)": 25.568001930774525,
        "RAAN(deg)": -0.04824561720497029,
        "Satellite Name": "Starlink Shell 1 20",
        "Satellite Number": 20,
        "Semi-Major Axis(m)": 6931778.249405717,
        "Time(s)": 930
    },
    {
        "Altitude(m)": 553866.1711757783,
        "Argument of Periapsis(deg)": 0.03276637707405627,
        "Eccentricity": 0.0,
        "Inclination(deg)": 53.0,
        "Latitude(deg)": 20.713792128736976,
        "Longitude(deg)": -87.48262791864154,
        "Mean Anomaly(deg)": 26.194833134331184,
        "RAAN(deg)": -0.04876438728244309,
        "Satellite Name": "Starlink Shell 1 20",
        "Satellite Number": 20,
        "Semi-Major Axis(m)": 6931778.249405717,
        "Time(s)": 940
    }
]